{"type": "FeatureCollection", "features": [ {"type": "Feature", "properties": {"norad_id": 37421, "name": "FENGYUN 1C DEB", "group": "fengyun-1c-debris", "lat": 3.6288973280137746, "lon": 131.44729630815797, "alt_km": 1241.0595877177175, "timestamp": "2025-12-23T09:49:07.372695+00:00", "meta": {"OBJECT_NAME": "FENGYUN 1C DEB", "OBJECT_ID": "1999-025EGP", "EPOCH": "2025-12-22T15:04:15.674880", "MEAN_MOTION": 13.40544347, "ECCENTRICITY": 0.04094585, "INCLINATION": 98.8889, "RA_OF_ASC_NODE": 310.1905, "ARG_OF_PERICENTER": 60.6769, "MEAN_ANOMALY": 303.4625, "EPHEMERIS_TYPE": 0, "CLASSIFICATION_TYPE": "U", "NORAD_CAT_ID": 37421, "ELEMENT_SET_NO": 999, "REV_AT_EPOCH": 61078, "BSTAR": 0.00082017291, "MEAN_MOTION_DOT": 7.02e-06, "MEAN_MOTION_DDOT": 0}, "tle": {"line1": "1 37421U 99025EGP 25356.62795920  .00000702  00000+0  82017-3 0  9992", "line2": "2 37421  98.8889 310.1905 0409458  60.6769 303.4625 13.40544347610782"}}, "geometry": {"type": "Point", "coordinates": [131.44729630815797, 3.6288973280137746]}}, {"type": "Feature", "properties": {"norad_id": 37423, "name": "FENGYUN 1C DEB", "group": "fengyun-1c-debris", "lat": -81.09847483772731, "lon": 128.23709834486388, "alt_km": 902.8087058264146, "timestamp": "2025-12-23T09:49:07.372705+00:00", "meta": {"OBJECT_NAME": "FENGYUN 1C DEB", "OBJECT_ID": "1999-025EGR", "EPOCH": "2025-12-19T20:56:31.693920", "MEAN_MOTION": 14.07571536, "ECCENTRICITY": 0.0049402, "INCLINATION": 98.7853, "RA_OF_ASC_NODE": 43.9189, "ARG_OF_PERICENTER": 140.2024, "MEAN_ANOMALY": 220.2786, "EPHEMERIS_TYPE": 0, "CLASSIFICATION_TYPE": "U", "NORAD_CAT_ID": 37423, "ELEMENT_SET_NO": 999, "REV_AT_EPOCH": 63710, "BSTAR": 0.00067171, "MEAN_MOTION_DOT": 1.103e-05, "MEAN_MOTION_DDOT": 0}, "tle": {"line1": "1 37423U 99025EGR 25353.87258905  .00001103  00000+0  67171-3 0  9995", "line2": "2 37423  98.7853  43.9189 0049402 140.2024 220.2786 14.07571536637100"}}, "geometry": {"type": "Point", "coordinates": [128.23709834486388, -81.09847483772731]}}, {"type": "Feature", "properties": {"norad_id": 37424, "name": "FENGYUN 1C DEB", "group": "fengyun-1c-debris", "lat": 4.143540763643133, "lon": -55.57341551018144, "alt_km": 791.0864640594828, "timestamp": "2025-12-23T09:49:07.372716+00:00", "meta": {"OBJECT_NAME": "FENGYUN 1C DEB", "OBJECT_ID": "1999-025EGS", "EPOCH": "2025-12-21T14:37:45.437952", "MEAN_MOTION": 14.17892468, "ECCENTRICITY": 0.021449, "INCLINATION": 97.1981, "RA_OF_ASC_NODE": 122.4405, "ARG_OF_PERICENTER": 255.8264, "MEAN_ANOMALY": 101.9002, "EPHEMERIS_TYPE": 0, "CLASSIFICATION_TYPE": "U", "NORAD_CAT_ID": 37424, "ELEMENT_SET_NO": 999, "REV_AT_EPOCH": 68699, "BSTAR": 0.00090223, "MEAN_MOTION_DOT": 2.279e-05, "MEAN_MOTION_DDOT": 0}, "tle": {"line1": "1 37424U 99025EGS 25355.60955368  .00002279  00000+0  90223-3 0  9995", "line2": "2 37424  97.1981 122.4405 0214490 255.8264 101.9002 14.17892468686998"}}, "geometry": {"type": "Point", "coordinates": [-55.57341551018144, 4.143540763643133]}}, {"type": "Feature", "properties": {"norad_id": 37427, "name": "FENGYUN 1C DEB", "group": "fengyun-1c-debris", "lat": 58.57961708839958, "lon": 126.02120731939648, "alt_km": 686.5136936472945, "timestamp": "2025-12-23T09:49:07.372726+00:00", "meta": {"OBJECT_NAME": "FENGYUN 1C DEB", "OBJECT_ID": "1999-025EGV", "EPOCH": "2025-12-22T15:54:56.414016", "MEAN_MOTION": 14.98190538, "ECCENTRICITY": 0.01875712, "INCLINATION": 98.6214, "RA_OF_ASC_NODE": 139.5778, "ARG_OF_PERICENTER": 265.0636, "MEAN_ANOMALY": 92.9148, "EPHEMERIS_TYPE": 0, "CLASSIFICATION_TYPE": "U", "NORAD_CAT_ID": 37427, "ELEMENT_SET_NO": 999, "REV_AT_EPOCH": 60471, "BSTAR": 0.00050243667, "MEAN_MOTION_DOT": 8.512e-05, "MEAN_MOTION_DDOT": 0}, "tle": {"line1": "1 37427U 99025EGV 25356.66315294  .00008512  00000+0  50244-3 0  9998", "line2": "2 37427  98.6214 139.5778 0187571 265.0636  92.9148 14.98190538604711"}}, "geometry": {"type": "Point", "coordinates": [126.02120731939648, 58.57961708839958]}}, {"type": "Feature", "properties": {"norad_id": 37428, "name": "FENGYUN 1C DEB", "group": "fengyun-1c-debris", "lat": -18.667265341370847, "lon": -138.43308447195093, "alt_km": 777.4055231620141, "timestamp": "2025-12-23T09:49:07.372736+00:00", "meta": {"OBJECT_NAME": "FENGYUN 1C DEB", "OBJECT_ID": "1999-025EGW", "EPOCH": "2025-12-14T08:18:44.705664", "MEAN_MOTION": 14.34657068, "ECCENTRICITY": 0.0056813, "INCLINATION": 97.722, "RA_OF_ASC_NODE": 210.8336, "ARG_OF_PERICENTER": 94.0763, "MEAN_ANOMALY": 266.6921, "EPHEMERIS_TYPE": 0, "CLASSIFICATION_TYPE": "U", "NORAD_CAT_ID": 37428, "ELEMENT_SET_NO": 999, "REV_AT_EPOCH": 63459, "BSTAR": 0.0018586443, "MEAN_MOTION_DOT": 5.32e-05, "MEAN_MOTION_DDOT": 0}, "tle": {"line1": "1 37428U 99025EGW 25348.34635076  .00005320  00000+0  18586-2 0  9994", "line2": "2 37428  97.7220 210.8336 0056813  94.0763 266.6921 14.34657068634591"}}, "geometry": {"type": "Point", "coordinates": [-138.43308447195093, -18.667265341370847]}}, {"type": "Feature", "properties": {"norad_id": 37430, "name": "FENGYUN 1C DEB", "group": "fengyun-1c-debris", "lat": -21.183183557512347, "lon": -111.85715927445678, "alt_km": 812.382089392835, "timestamp": "2025-12-23T09:49:07.372746+00:00", "meta": {"OBJECT_NAME": "FENGYUN 1C DEB", "OBJECT_ID": "1999-025EGY", "EPOCH": "2025-12-05T03:58:16.719456", "MEAN_MOTION": 14.28846273, "ECCENTRICITY": 0.001883, "INCLINATION": 98.7668, "RA_OF_ASC_NODE": 53.2332, "ARG_OF_PERICENTER": 93.5332, "MEAN_ANOMALY": 266.8003, "EPHEMERIS_TYPE": 0, "CLASSIFICATION_TYPE": "U", "NORAD_CAT_ID": 37430, "ELEMENT_SET_NO": 999, "REV_AT_EPOCH": 61593, "BSTAR": 0.0038447795, "MEAN_MOTION_DOT": 9.683e-05, "MEAN_MOTION_DDOT": 0}, "tle": {"line1": "1 37430U 99025EGY 25339.16547129  .00009683  00000+0  38448-2 0  9993", "line2": "2 37430  98.7668  53.2332 0018830  93.5332 266.8003 14.28846273615930"}}, "geometry": {"type": "Point", "coordinates": [-111.85715927445678, -21.183183557512347]}}, {"type": "Feature", "properties": {"norad_id": 37432, "name": "FENGYUN 1C DEB", "group": "fengyun-1c-debris", "lat": 50.6271326862431, "lon": -159.4609898134684, "alt_km": 784.3668516936232, "timestamp": "2025-12-23T09:49:07.372756+00:00", "meta": {"OBJECT_NAME": "FENGYUN 1C DEB", "OBJECT_ID": "1999-025EHA", "EPOCH": "2025-12-18T06:57:07.635744", "MEAN_MOTION": 14.53484478, "ECCENTRICITY": 0.01820098, "INCLINATION": 98.1832, "RA_OF_ASC_NODE": 5.4367, "ARG_OF_PERICENTER": 270.6812, "MEAN_ANOMALY": 87.3534, "EPHEMERIS_TYPE": 0, "CLASSIFICATION_TYPE": "U", "NORAD_CAT_ID": 37432, "ELEMENT_SET_NO": 999, "REV_AT_EPOCH": 8457, "BSTAR": 0.00071615853, "MEAN_MOTION_DOT": 3.664e-05, "MEAN_MOTION_DDOT": 0}, "tle": {"line1": "1 37432U 99025EHA 25352.28967171  .00003664  00000+0  71616-3 0  9994", "line2": "2 37432  98.1832   5.4367 0182009 270.6812  87.3534 14.53484478 84575"}}, "geometry": {"type": "Point", "coordinates": [-159.4609898134684, 50.6271326862431]}}, {"type": "Feature", "properties": {"norad_id": 37435, "name": "FENGYUN 1C DEB", "group": "fengyun-1c-debris", "lat": -66.43179702802618, "lon": 53.933655381211395, "alt_km": 806.4083861009067, "timestamp": "2025-12-23T09:49:07.372766+00:00", "meta": {"OBJECT_NAME": "FENGYUN 1C DEB", "OBJECT_ID": "1999-025EHD", "EPOCH": "2025-12-22T20:37:47.221248", "MEAN_MOTION": 14.22406478, "ECCENTRICITY": 0.00399569, "INCLINATION": 98.647, "RA_OF_ASC_NODE": 32.9785, "ARG_OF_PERICENTER": 345.0164, "MEAN_ANOMALY": 14.9828, "EPHEMERIS_TYPE": 0, "CLASSIFICATION_TYPE": "U", "NORAD_CAT_ID": 37435, "ELEMENT_SET_NO": 999, "REV_AT_EPOCH": 89083, "BSTAR": 0.0010251252, "MEAN_MOTION_DOT": 2.258e-05, "MEAN_MOTION_DDOT": 0}, "tle": {"line1": "1 37435U 99025EHD 25356.85957432  .00002258  00000+0  10251-2 0  9998", "line2": "2 37435  98.6470  32.9785 0039956 345.0164  14.9828 14.22406478890835"}}, "geometry": {"type": "Point", "coordinates": [53.933655381211395, -66.43179702802618]}}, {"type": "Feature", "properties": {"norad_id": 37436, "name": "FENGYUN 1C DEB", "group": "fengyun-1c-debris", "lat": 54.64619848792389, "lon": -115.42256576105584, "alt_km": 823.4380584357395, "timestamp": "2025-12-23T09:49:07.372777+00:00", "meta": {"OBJECT_NAME": "FENGYUN 1C DEB", "OBJECT_ID": "1999-025EHE", "EPOCH": "2025-12-21T21:22:33.469824", "MEAN_MOTION": 14.06364204, "ECCENTRICITY": 0.00598101, "INCLINATION": 98.9358, "RA_OF_ASC_NODE": 50.2657, "ARG_OF_PERICENTER": 122.9047, "MEAN_ANOMALY": 237.7895, "EPHEMERIS_TYPE": 0, "CLASSIFICATION_TYPE": "U", "NORAD_CAT_ID": 37436, "ELEMENT_SET_NO": 999, "REV_AT_EPOCH": 64127, "BSTAR": 0.00050125078, "MEAN_MOTION_DOT": 7.97e-06, "MEAN_MOTION_DDOT": 0}, "tle": {"line1": "1 37436U 99025EHE 25355.89066516  .00000797  00000+0  50125-3 0  9997", "line2": "2 37436  98.9358  50.2657 0059810 122.9047 237.7895 14.06364204641271"}}, "geometry": {"type": "Point", "coordinates": [-115.42256576105584, 54.64619848792389]}}, {"type": "Feature", "properties": {"norad_id": 37437, "name": "FENGYUN 1C DEB", "group": "fengyun-1c-debris", "lat": 16.734480557609782, "lon": 171.5606614016611, "alt_km": 896.487880334942, "timestamp": "2025-12-23T09:49:07.372807+00:00", "meta": {"OBJECT_NAME": "FENGYUN 1C DEB", "OBJECT_ID": "1999-025EHF", "EPOCH": "2025-12-20T19:00:38.354112", "MEAN_MOTION": 14.18871873, "ECCENTRICITY": 0.01134679, "INCLINATION": 98.5873, "RA_OF_ASC_NODE": 346.4214, "ARG_OF_PERICENTER": 25.3496, "MEAN_ANOMALY": 96.9024, "EPHEMERIS_TYPE": 0, "CLASSIFICATION_TYPE": "U", "NORAD_CAT_ID": 37437, "ELEMENT_SET_NO": 999, "REV_AT_EPOCH": 64105, "BSTAR": 0.00047000857, "MEAN_MOTION_DOT": 1.001e-05, "MEAN_MOTION_DDOT": 0}, "tle": {"line1": "1 37437U 99025EHF 25354.79211058  .00001001  00000+0  47001-3 0  9997", "line2": "2 37437  98.5873 346.4214 0113467  25.3496  96.9024 14.18871873641055"}}, "geometry": {"type": "Point", "coordinates": [171.5606614016611, 16.734480557609782]}}]}